[{"OBJECT_NAME":"STARLINK-2092","OBJECT_ID":"2021-005AA","EPOCH":"2026-03-10T00:00:02.999808","MEAN_MOTION":15.12048507,"ECCENTRICITY":0.00015603,"INCLINATION":53.075,"RA_OF_ASC_NODE":60.1573,"ARG_OF_PERICENTER":113.0557,"MEAN_ANOMALY":153.2975,"EPHEMERIS_TYPE":0,"CLASSIFICATION_TYPE":"U","NORAD_CAT_ID":47373,"ELEMENT_SET_NO":999,"REV_AT_EPOCH":579,"BSTAR":0.0045393715,"MEAN_MOTION_DOT":0.0007953,"MEAN_MOTION_DDOT":0},{"OBJECT_NAME":"CZ-6A DEB","OBJECT_ID":"2024-140ZQ","EPOCH":"2026-03-09T07:41:20.503680","MEAN_MOTION":14.88666488,"ECCENTRICITY":0.01239144,"INCLINATION":88.9332,"RA_OF_ASC_NODE":275.1602,"ARG_OF_PERICENTER":122.3295,"MEAN_ANOMALY":239.0003,"EPHEMERIS_TYPE":0,"CLASSIFICATION_TYPE":"U","NORAD_CAT_ID":61458,"ELEMENT_SET_NO":999,"REV_AT_EPOCH":8241,"BSTAR":0.001542641,"MEAN_MOTION_DOT":0.00016654,"MEAN_MOTION_DDOT":0}]
